FLOCK 4BE-27            
1 60513U 24149AX  26068.75339182  .00011439  00000+0  36576-3 0  9992
2 60513  97.3862 150.6783 0002732 305.8980  54.2008 15.32593322 86906
STARLINK-32441          
1 61668U 24193H   26068.35372660  .00000610  00000+0  32717-4 0  9990
2 61668  53.1604  92.6773 0001181 107.0452 253.0678 15.30192515 76479
