[{"OBJECT_NAME":"FLOCK 4BE-27","OBJECT_ID":"2024-149AX","EPOCH":"2026-03-09T18:04:53.053248","MEAN_MOTION":15.32593322,"ECCENTRICITY":0.00027324,"INCLINATION":97.3862,"RA_OF_ASC_NODE":150.6783,"ARG_OF_PERICENTER":305.898,"MEAN_ANOMALY":54.2008,"EPHEMERIS_TYPE":0,"CLASSIFICATION_TYPE":"U","NORAD_CAT_ID":60513,"ELEMENT_SET_NO":999,"REV_AT_EPOCH":8690,"BSTAR":0.00036576028,"MEAN_MOTION_DOT":0.00011439,"MEAN_MOTION_DDOT":0},{"OBJECT_NAME":"STARLINK-32441","OBJECT_ID":"2024-193H","EPOCH":"2026-03-09T08:29:21.978240","MEAN_MOTION":15.30192515,"ECCENTRICITY":0.00011818,"INCLINATION":53.1604,"RA_OF_ASC_NODE":92.6773,"ARG_OF_PERICENTER":107.0452,"MEAN_ANOMALY":253.0678,"EPHEMERIS_TYPE":0,"CLASSIFICATION_TYPE":"U","NORAD_CAT_ID":61668,"ELEMENT_SET_NO":999,"REV_AT_EPOCH":7647,"BSTAR":3.271682e-5,"MEAN_MOTION_DOT":6.1e-6,"MEAN_MOTION_DDOT":0}]
